[{"OBJECT_NAME":"STARLINK-11093 [DTC]","OBJECT_ID":"2024-065C","EPOCH":"2026-03-09T10:34:17.912640","MEAN_MOTION":15.69712499,"ECCENTRICITY":0.00011047,"INCLINATION":53.159,"RA_OF_ASC_NODE":95.139,"ARG_OF_PERICENTER":56.3687,"MEAN_ANOMALY":303.7436,"EPHEMERIS_TYPE":0,"CLASSIFICATION_TYPE":"U","NORAD_CAT_ID":59423,"ELEMENT_SET_NO":999,"REV_AT_EPOCH":11148,"BSTAR":-6.48753e-7,"MEAN_MOTION_DOT":-6.67e-6,"MEAN_MOTION_DDOT":0},{"OBJECT_NAME":"HORIZON (RS59S)","OBJECT_ID":"2024-199Y","EPOCH":"2026-03-09T22:30:11.638080","MEAN_MOTION":15.70291895,"ECCENTRICITY":0.00030615,"INCLINATION":97.3063,"RA_OF_ASC_NODE":307.7521,"ARG_OF_PERICENTER":244.864,"MEAN_ANOMALY":115.2305,"EPHEMERIS_TYPE":0,"CLASSIFICATION_TYPE":"U","NORAD_CAT_ID":61757,"ELEMENT_SET_NO":999,"REV_AT_EPOCH":12246,"BSTAR":0.00120059,"MEAN_MOTION_DOT":0.00148042,"MEAN_MOTION_DDOT":0}]
